STARLINK-31112          
1 58680U 23211P   26164.99266096 -.00000476  00000+0 -77376-5 0  9995
2 58680  43.0088 261.3481 0002623 277.2693  82.7861 15.27584336138374
STARLINK-31147          
1 58681U 23211Q   26165.53118647 -.00000055  00000+0  75331-5 0  9996
2 58681  42.9992 258.5153 0000946 267.5705  92.5039 15.27575284137279
STARLINK-31144          
1 58682U 23211R   26165.55416392 -.00000206  00000+0  20603-5 0  9997
2 58682  43.0075 257.8172 0002185 289.6244  70.4371 15.27580490137287
STARLINK-31095          
1 58683U 23211S   26164.56323682 -.00001441  00000+0 -42863-4 0  9991
2 58683  43.0078 264.1390 0001939 275.7064  84.3567 15.27568088138399
STARLINK-31107          
1 58684U 23211T   26165.55045163  .00000475  00000+0  26797-4 0  9999
2 58684  43.0002 258.6515 0001105 267.4059  92.6666 15.27580694137276
STARLINK-31121          
1 58685U 23211U   26165.55801464  .00002343  00000+0  94601-4 0  9999
2 58685  42.9965 257.8455 0001698 273.8113  86.2544 15.27589716137285
STARLINK-31137          
1 58686U 23211V   26165.52861176  .00020168  00000+0  74008-3 0  9996
2 58686  43.0004 258.4882 0001923 264.3913  95.6720 15.27594357137273
STARLINK-31106          
1 58689U 23211Y   26164.99781757  .00008421  00000+0  31505-3 0  9998
2 58689  43.0063 261.3853 0001596 257.6390 102.4283 15.27594846137197
STARLINK-11072 [DTC]    
1 58705U 24002A   26165.25217476 -.00002027  00000+0 -11866-4 0  9995
2 58705  53.1597 158.0019 0001466  53.3673 306.7479 15.69711788141606
STARLINK-11075 [DTC]    
1 58706U 24002B   26165.28154640 -.00005452  00000+0 -40255-4 0  9991
2 58706  53.1601 157.4641 0001218  81.6077 278.5079 15.69661816141613
STARLINK-11077 [DTC]    
1 58707U 24002C   26165.26198054  .00000380  00000+0  79978-5 0  9995
2 58707  53.1586 158.0443 0001004  69.8640 290.2485 15.69705814141608
STARLINK-11079 [DTC]    
1 58708U 24002D   26165.24726531  .00000102  00000+0  57073-5 0  9995
2 58708  53.1587 157.9619 0001468  72.7281 287.3898 15.69703521141609
STARLINK-11076 [DTC]    
1 58709U 24002E   26165.24235834  .00000856  00000+0  11927-4 0  9990
2 58709  53.1597 157.9331 0001152  70.1012 290.0130 15.69709044141602
STARLINK-11078 [DTC]    
1 58710U 24002F   26165.23745436 -.00000233  00000+0  29363-5 0  9999
2 58710  53.1595 157.9040 0001241  89.3633 270.7527 15.69709103141600
STARLINK-31031          
1 58711U 24002G   26165.20931020 -.00000496  00000+0 -35370-5 0  9990
2 58711  53.1599 140.8591 0001277  82.8599 277.2549 15.34391426136804
STARLINK-31029          
1 58712U 24002H   26165.19794131 -.00000808  00000+0 -15155-4 0  9994
2 58712  53.1595 141.4913 0001381  82.0027 278.1130 15.30189136136793
STARLINK-30973          
1 58713U 24002J   26165.20425580  .00001209  00000+0  52944-4 0  9997
2 58713  53.1600 141.5295 0001208  84.6450 275.4689 15.30202768136797
STARLINK-31100          
1 58714U 24002K   26165.20743849  .00001889  00000+0  75963-4 0  9999
2 58714  53.1592 141.5489 0001486 106.9220 253.1944 15.30174461136799
STARLINK-31102          
1 58715U 24002L   26165.24504654  .00004477  00000+0  14345-3 0  9995
2 58715  53.1601 141.0708 0001238 103.0505 257.0636 15.34423175136805
STARLINK-31098          
1 58716U 24002M   26165.20956076 -.00000891  00000+0 -17959-4 0  9994
2 58716  53.1601 141.5602 0001375  79.6870 280.4285 15.30189426136791
STARLINK-31093          
1 58717U 24002N   26165.21693700  .00000006  00000+0  12343-4 0  9996
2 58717  53.1601 141.6183 0001287  80.7106 279.4041 15.30191591136798
STARLINK-31097          
1 58718U 24002P   26165.21376925 -.00000847  00000+0 -16483-4 0  9998
2 58718  53.1598 141.5841 0001319  80.0999 280.0151 15.30192676136798
STARLINK-31051          
1 58719U 24002Q   26165.21904409  .00001922  00000+0  77024-4 0  9994
2 58719  53.1606 141.6166 0001099 103.3708 256.7415 15.30185401136793
STARLINK-31027          
1 58720U 24002R   26165.15191225  .00093925  00000+0  73740-3 0  9997
2 58720  53.1415 116.6917 0006494 344.3457  15.7359 15.70769653137131
STARLINK-30972          
1 58721U 24002S   26165.20532563 -.00002904  00000+0 -85957-4 0  9991
2 58721  53.1603 141.5307 0001417  81.7816 278.3345 15.30196311136796
STARLINK-31040          
1 58722U 24002T   26165.23035632 -.00001451  00000+0 -31848-4 0  9996
2 58722  53.1605 140.9778 0001334  94.9973 265.1182 15.34382138136805
STARLINK-31033          
1 58723U 24002U   26165.21271376 -.00000820  00000+0 -15572-4 0  9997
2 58723  53.1596 141.5727 0001313  79.4116 280.7033 15.30190946136796
STARLINK-30893          
1 58724U 24002V   26165.21983048 -.00000361  00000+0  43987-6 0  9996
2 58724  53.1605 140.9222 0001357  93.1093 267.0065 15.34391785136797
STARLINK-30856          
1 58725U 24002W   26165.20849161  .00000538  00000+0  30281-4 0  9999
2 58725  53.1590 141.5520 0001230  82.1087 278.0054 15.30194103136791
STARLINK-31115          
1 58729U 24005B   26165.36188316 -.00000677  00000+0 -15071-4 0  9997
2 58729  43.0083  34.2007 0001472 264.2783  95.7900 15.27571668135213
