OBJECT_NAME,OBJECT_ID,EPOCH,MEAN_MOTION,ECCENTRICITY,INCLINATION,RA_OF_ASC_NODE,ARG_OF_PERICENTER,MEAN_ANOMALY,EPHEMERIS_TYPE,CLASSIFICATION_TYPE,NORAD_CAT_ID,ELEMENT_SET_NO,REV_AT_EPOCH,BSTAR,MEAN_MOTION_DOT,MEAN_MOTION_DDOT
STARLINK-31112,2023-211P,2026-06-13T23:49:25.906944,15.27584336,.00026232,43.0088,261.3481,277.2693,82.7861,0,U,58680,999,13837,-.773759E-5,-.476E-5,0
STARLINK-31147,2023-211Q,2026-06-14T12:44:54.511008,15.27575284,.0000946,42.9992,258.5153,267.5705,92.5039,0,U,58681,999,13727,.75331E-5,-.55E-6,0
STARLINK-31144,2023-211R,2026-06-14T13:17:59.762688,15.27580490,.0002185,43.0075,257.8172,289.6244,70.4371,0,U,58682,999,13728,.20603E-5,-.206E-5,0
STARLINK-31095,2023-211S,2026-06-13T13:31:03.661248,15.27568088,.0001939,43.0078,264.1390,275.7064,84.3567,0,U,58683,999,13839,-.42863E-4,-.1441E-4,0
STARLINK-31107,2023-211T,2026-06-14T13:12:39.020832,15.27580694,.0001105,43.0002,258.6515,267.4059,92.6666,0,U,58684,999,13727,.26797E-4,.475E-5,0
STARLINK-31121,2023-211U,2026-06-14T13:23:32.464896,15.27589716,.0001698,42.9965,257.8455,273.8113,86.2544,0,U,58685,999,13728,.94601E-4,.2343E-4,0
STARLINK-31137,2023-211V,2026-06-14T12:41:12.056064,15.27594357,.0001923,43.0004,258.4882,264.3913,95.6720,0,U,58686,999,13727,.74008E-3,.20168E-3,0
STARLINK-31106,2023-211Y,2026-06-13T23:56:51.438048,15.27594846,.00015967,43.0063,261.3853,257.6390,102.4283,0,U,58689,999,13719,.31504984E-3,.8421E-4,0
STARLINK-11072 [DTC],2024-002A,2026-06-14T06:03:07.899264,15.69711788,.0001466,53.1597,158.0019,53.3673,306.7479,0,U,58705,999,14160,-.11866E-4,-.2027E-4,0
STARLINK-11075 [DTC],2024-002B,2026-06-14T06:45:25.608960,15.69661816,.0001218,53.1601,157.4641,81.6077,278.5079,0,U,58706,999,14161,-.40255E-4,-.5452E-4,0
STARLINK-11077 [DTC],2024-002C,2026-06-14T06:17:15.118656,15.69705814,.0001004,53.1586,158.0443,69.8640,290.2485,0,U,58707,999,14160,.79978E-5,.38E-5,0
STARLINK-11079 [DTC],2024-002D,2026-06-14T05:56:03.722784,15.69703521,.0001468,53.1587,157.9619,72.7281,287.3898,0,U,58708,999,14160,.57073E-5,.102E-5,0
STARLINK-11076 [DTC],2024-002E,2026-06-14T05:48:59.760576,15.69709044,.0001152,53.1597,157.9331,70.1012,290.0130,0,U,58709,999,14160,.11927E-4,.856E-5,0
STARLINK-11078 [DTC],2024-002F,2026-06-14T05:41:56.056704,15.69709103,.0001241,53.1595,157.9040,89.3633,270.7527,0,U,58710,999,14160,.29363E-5,-.233E-5,0
STARLINK-31031,2024-002G,2026-06-14T05:01:24.401280,15.34391426,.0001277,53.1599,140.8591,82.8599,277.2549,0,U,58711,999,13680,-.3537044E-5,-.496E-5,0
STARLINK-31029,2024-002H,2026-06-14T04:45:02.129184,15.30189136,.00013811,53.1595,141.4913,82.0027,278.1130,0,U,58712,999,13679,-.15155143E-4,-.808E-5,0
STARLINK-30973,2024-002J,2026-06-14T04:54:07.701120,15.30202768,.00012082,53.1600,141.5295,84.6450,275.4689,0,U,58713,999,13679,.52943926E-4,.1209E-4,0
STARLINK-31100,2024-002K,2026-06-14T04:58:42.685536,15.30174461,.00014864,53.1592,141.5489,106.9220,253.1944,0,U,58714,999,13679,.75962561E-4,.1889E-4,0
STARLINK-31102,2024-002L,2026-06-14T05:52:52.021056,15.34423175,.0001238,53.1601,141.0708,103.0505,257.0636,0,U,58715,999,13680,.14345E-3,.4477E-4,0
STARLINK-31098,2024-002M,2026-06-14T05:01:46.049664,15.30189426,.00013758,53.1601,141.5602,79.6870,280.4285,0,U,58716,999,13679,-.1795949E-4,-.891E-5,0
STARLINK-31093,2024-002N,2026-06-14T05:12:23.356800,15.30191591,.00012874,53.1601,141.6183,80.7106,279.4041,0,U,58717,999,13679,.12343415E-4,.6E-7,0
STARLINK-31097,2024-002P,2026-06-14T05:07:49.663200,15.30192676,.00013198,53.1598,141.5841,80.0999,280.0151,0,U,58718,999,13679,-.16483199E-4,-.847E-5,0
STARLINK-31051,2024-002Q,2026-06-14T05:15:25.409376,15.30185401,.00010996,53.1606,141.6166,103.3708,256.7415,0,U,58719,999,13679,.7702424E-4,.1922E-4,0
STARLINK-31027,2024-002R,2026-06-14T03:38:45.218400,15.70769653,.00064948,53.1415,116.6917,344.3457,15.7359,0,U,58720,999,13713,.73740141E-3,.93925E-3,0
STARLINK-30972,2024-002S,2026-06-14T04:55:40.134432,15.30196311,.00014179,53.1603,141.5307,81.7816,278.3345,0,U,58721,999,13679,-.85956827E-4,-.2904E-4,0
STARLINK-31040,2024-002T,2026-06-14T05:31:42.786048,15.34382138,.00013341,53.1605,140.9778,94.9973,265.1182,0,U,58722,999,13680,-.31848118E-4,-.1451E-4,0
STARLINK-31033,2024-002U,2026-06-14T05:06:18.468864,15.30190946,.00013131,53.1596,141.5727,79.4116,280.7033,0,U,58723,999,13679,-.15571594E-4,-.82E-5,0
STARLINK-30893,2024-002V,2026-06-14T05:16:33.353472,15.34391785,.00013579,53.1605,140.9222,93.1093,267.0065,0,U,58724,999,13679,.43987E-6,-.361E-5,0
STARLINK-30856,2024-002W,2026-06-14T05:00:13.675104,15.30194103,.00012302,53.1590,141.5520,82.1087,278.0054,0,U,58725,999,13679,.30281436E-4,.538E-5,0
STARLINK-31115,2024-005B,2026-06-14T08:41:06.705024,15.27571668,.0001472,43.0083,34.2007,264.2783,95.7900,0,U,58729,999,13521,-.15071E-4,-.677E-5,0
